{"type": "FeatureCollection", "features": [ {"type": "Feature", "properties": {"norad_id": 34327, "name": "COSMOS 2251 DEB", "group": "cosmos-2251-debris", "lat": 27.892187438830003, "lon": 167.66314116356767, "alt_km": 585.3048061219388, "timestamp": "2025-12-19T04:59:48.700836+00:00", "meta": {"OBJECT_NAME": "COSMOS 2251 DEB", "OBJECT_ID": "1993-036NZ", "EPOCH": "2025-12-18T12:59:52.288224", "MEAN_MOTION": 14.89304888, "ECCENTRICITY": 0.00331713, "INCLINATION": 73.9924, "RA_OF_ASC_NODE": 160.2584, "ARG_OF_PERICENTER": 335.4801, "MEAN_ANOMALY": 80.811, "EPHEMERIS_TYPE": 0, "CLASSIFICATION_TYPE": "U", "NORAD_CAT_ID": 34327, "ELEMENT_SET_NO": 999, "REV_AT_EPOCH": 89594, "BSTAR": 0.00094254705, "MEAN_MOTION_DOT": 9.001e-05, "MEAN_MOTION_DDOT": 0}, "tle": {"line1": "1 34327U 93036NZ  25352.54157741  .00009001  00000+0  94255-3 0  9998", "line2": "2 34327  73.9924 160.2584 0033171 335.4801  80.8110 14.89304888895946"}}, "geometry": {"type": "Point", "coordinates": [167.66314116356767, 27.892187438830003]}}, {"type": "Feature", "properties": {"norad_id": 34340, "name": "COSMOS 2251 DEB", "group": "cosmos-2251-debris", "lat": 23.662157957983254, "lon": 109.99833991785388, "alt_km": 1036.502191717068, "timestamp": "2025-12-19T04:59:48.700846+00:00", "meta": {"OBJECT_NAME": "COSMOS 2251 DEB", "OBJECT_ID": "1993-036PN", "EPOCH": "2025-12-18T23:22:59.925216", "MEAN_MOTION": 13.79595736, "ECCENTRICITY": 0.02834236, "INCLINATION": 74.0787, "RA_OF_ASC_NODE": 297.5738, "ARG_OF_PERICENTER": 43.8914, "MEAN_ANOMALY": 27.0831, "EPHEMERIS_TYPE": 0, "CLASSIFICATION_TYPE": "U", "NORAD_CAT_ID": 34340, "ELEMENT_SET_NO": 999, "REV_AT_EPOCH": 84354, "BSTAR": 0.0012922339, "MEAN_MOTION_DOT": 1.78e-05, "MEAN_MOTION_DDOT": 0}, "tle": {"line1": "1 34340U 93036PN  25352.97430469  .00001780  00000+0  12922-2 0  9997", "line2": "2 34340  74.0787 297.5738 0283423  43.8914  27.0831 13.79595736843541"}}, "geometry": {"type": "Point", "coordinates": [109.99833991785388, 23.662157957983254]}}, {"type": "Feature", "properties": {"norad_id": 34343, "name": "COSMOS 2251 DEB", "group": "cosmos-2251-debris", "lat": 21.826283359231503, "lon": -109.57885370439546, "alt_km": 678.414943790227, "timestamp": "2025-12-19T04:59:48.700856+00:00", "meta": {"OBJECT_NAME": "COSMOS 2251 DEB", "OBJECT_ID": "1993-036PR", "EPOCH": "2025-12-18T15:45:35.304768", "MEAN_MOTION": 14.69529316, "ECCENTRICITY": 0.00238905, "INCLINATION": 74.0206, "RA_OF_ASC_NODE": 78.0802, "ARG_OF_PERICENTER": 350.7916, "MEAN_ANOMALY": 129.6595, "EPHEMERIS_TYPE": 0, "CLASSIFICATION_TYPE": "U", "NORAD_CAT_ID": 34343, "ELEMENT_SET_NO": 999, "REV_AT_EPOCH": 88817, "BSTAR": 0.00094976164, "MEAN_MOTION_DOT": 5.632e-05, "MEAN_MOTION_DDOT": 0}, "tle": {"line1": "1 34343U 93036PR  25352.65665862  .00005632  00000+0  94976-3 0  9992", "line2": "2 34343  74.0206  78.0802 0023890 350.7916 129.6595 14.69529316888171"}}, "geometry": {"type": "Point", "coordinates": [-109.57885370439546, 21.826283359231503]}}, {"type": "Feature", "properties": {"norad_id": 34344, "name": "COSMOS 2251 DEB", "group": "cosmos-2251-debris", "lat": 69.0318889876011, "lon": -129.76544365226147, "alt_km": 942.9719531717838, "timestamp": "2025-12-19T04:59:48.700867+00:00", "meta": {"OBJECT_NAME": "COSMOS 2251 DEB", "OBJECT_ID": "1993-036PS", "EPOCH": "2025-12-18T17:13:37.907904", "MEAN_MOTION": 14.16454578, "ECCENTRICITY": 0.01562401, "INCLINATION": 73.9796, "RA_OF_ASC_NODE": 99.676, "ARG_OF_PERICENTER": 282.6089, "MEAN_ANOMALY": 201.4311, "EPHEMERIS_TYPE": 0, "CLASSIFICATION_TYPE": "U", "NORAD_CAT_ID": 34344, "ELEMENT_SET_NO": 999, "REV_AT_EPOCH": 86181, "BSTAR": 0.0015826322, "MEAN_MOTION_DOT": 3.521e-05, "MEAN_MOTION_DDOT": 0}, "tle": {"line1": "1 34344U 93036PS  25352.71779986  .00003521  00000+0  15826-2 0  9994", "line2": "2 34344  73.9796  99.6760 0156240 282.6089 201.4311 14.16454578861812"}}, "geometry": {"type": "Point", "coordinates": [-129.76544365226147, 69.0318889876011]}}, {"type": "Feature", "properties": {"norad_id": 34346, "name": "COSMOS 2251 DEB", "group": "cosmos-2251-debris", "lat": -8.754742784693565, "lon": 123.55567917348225, "alt_km": 845.8781839068915, "timestamp": "2025-12-19T04:59:48.700877+00:00", "meta": {"OBJECT_NAME": "COSMOS 2251 DEB", "OBJECT_ID": "1993-036PU", "EPOCH": "2025-12-18T21:33:18.959040", "MEAN_MOTION": 13.99711117, "ECCENTRICITY": 0.02061809, "INCLINATION": 73.9946, "RA_OF_ASC_NODE": 301.5601, "ARG_OF_PERICENTER": 119.0026, "MEAN_ANOMALY": 305.9706, "EPHEMERIS_TYPE": 0, "CLASSIFICATION_TYPE": "U", "NORAD_CAT_ID": 34346, "ELEMENT_SET_NO": 999, "REV_AT_EPOCH": 85496, "BSTAR": 0.00077636968, "MEAN_MOTION_DOT": 1.342e-05, "MEAN_MOTION_DDOT": 0}, "tle": {"line1": "1 34346U 93036PU  25352.89813610  .00001342  00000+0  77637-3 0  9996", "line2": "2 34346  73.9946 301.5601 0206180 119.0026 305.9706 13.99711117854964"}}, "geometry": {"type": "Point", "coordinates": [123.55567917348225, -8.754742784693565]}}, {"type": "Feature", "properties": {"norad_id": 34383, "name": "COSMOS 2251 DEB", "group": "cosmos-2251-debris", "lat": 50.95071681071598, "lon": -54.96249483859285, "alt_km": 530.5809973177347, "timestamp": "2025-12-19T04:59:48.700888+00:00", "meta": {"OBJECT_NAME": "COSMOS 2251 DEB", "OBJECT_ID": "1993-036PY", "EPOCH": "2025-12-18T21:06:37.624896", "MEAN_MOTION": 15.09517186, "ECCENTRICITY": 0.0002904, "INCLINATION": 74.0217, "RA_OF_ASC_NODE": 285.0313, "ARG_OF_PERICENTER": 47.1884, "MEAN_ANOMALY": 21.8108, "EPHEMERIS_TYPE": 0, "CLASSIFICATION_TYPE": "U", "NORAD_CAT_ID": 34383, "ELEMENT_SET_NO": 999, "REV_AT_EPOCH": 89206, "BSTAR": 0.0022194268, "MEAN_MOTION_DOT": 0.0003574, "MEAN_MOTION_DDOT": 0}, "tle": {"line1": "1 34383U 93036PY  25352.87960214  .00035740  00000+0  22194-2 0  9994", "line2": "2 34383  74.0217 285.0313 0002904  47.1884  21.8108 15.09517186892061"}}, "geometry": {"type": "Point", "coordinates": [-54.96249483859285, 50.95071681071598]}}, {"type": "Feature", "properties": {"norad_id": 34387, "name": "COSMOS 2251 DEB", "group": "cosmos-2251-debris", "lat": -73.77557705433317, "lon": 99.46042171206537, "alt_km": 728.4820716993936, "timestamp": "2025-12-19T04:59:48.700961+00:00", "meta": {"OBJECT_NAME": "COSMOS 2251 DEB", "OBJECT_ID": "1993-036QC", "EPOCH": "2025-12-18T14:45:13.749408", "MEAN_MOTION": 14.43832865, "ECCENTRICITY": 0.00388476, "INCLINATION": 74.0389, "RA_OF_ASC_NODE": 200.9758, "ARG_OF_PERICENTER": 296.8914, "MEAN_ANOMALY": 126.9828, "EPHEMERIS_TYPE": 0, "CLASSIFICATION_TYPE": "U", "NORAD_CAT_ID": 34387, "ELEMENT_SET_NO": 999, "REV_AT_EPOCH": 88266, "BSTAR": 0.00022689206, "MEAN_MOTION_DOT": 7.53e-06, "MEAN_MOTION_DDOT": 0}, "tle": {"line1": "1 34387U 93036QC  25352.61474247  .00000753  00000+0  22689-3 0  9992", "line2": "2 34387  74.0389 200.9758 0038847 296.8914 126.9828 14.43832865882668"}}, "geometry": {"type": "Point", "coordinates": [99.46042171206537, -73.77557705433317]}}, {"type": "Feature", "properties": {"norad_id": 34388, "name": "COSMOS 2251 DEB", "group": "cosmos-2251-debris", "lat": 18.33348267245279, "lon": -143.58456067847263, "alt_km": 732.5837619084068, "timestamp": "2025-12-19T04:59:48.700974+00:00", "meta": {"OBJECT_NAME": "COSMOS 2251 DEB", "OBJECT_ID": "1993-036QD", "EPOCH": "2025-12-18T15:55:12.491328", "MEAN_MOTION": 14.49393097, "ECCENTRICITY": 0.00138701, "INCLINATION": 74.0383, "RA_OF_ASC_NODE": 211.9949, "ARG_OF_PERICENTER": 259.8763, "MEAN_ANOMALY": 157.3488, "EPHEMERIS_TYPE": 0, "CLASSIFICATION_TYPE": "U", "NORAD_CAT_ID": 34388, "ELEMENT_SET_NO": 999, "REV_AT_EPOCH": 88241, "BSTAR": 0.00046565528, "MEAN_MOTION_DOT": 1.755e-05, "MEAN_MOTION_DDOT": 0}, "tle": {"line1": "1 34388U 93036QD  25352.66333902  .00001755  00000+0  46566-3 0  9993", "line2": "2 34388  74.0383 211.9949 0013870 259.8763 157.3488 14.49393097882415"}}, "geometry": {"type": "Point", "coordinates": [-143.58456067847263, 18.33348267245279]}}, {"type": "Feature", "properties": {"norad_id": 34389, "name": "COSMOS 2251 DEB", "group": "cosmos-2251-debris", "lat": -37.196038698996034, "lon": 70.38254071922435, "alt_km": 772.6799052095084, "timestamp": "2025-12-19T04:59:48.700985+00:00", "meta": {"OBJECT_NAME": "COSMOS 2251 DEB", "OBJECT_ID": "1993-036QE", "EPOCH": "2025-12-18T19:59:20.781888", "MEAN_MOTION": 14.41547107, "ECCENTRICITY": 0.00291758, "INCLINATION": 74.0181, "RA_OF_ASC_NODE": 238.5159, "ARG_OF_PERICENTER": 349.4297, "MEAN_ANOMALY": 82.7201, "EPHEMERIS_TYPE": 0, "CLASSIFICATION_TYPE": "U", "NORAD_CAT_ID": 34389, "ELEMENT_SET_NO": 999, "REV_AT_EPOCH": 88100, "BSTAR": 0.00026275448, "MEAN_MOTION_DOT": 8.32e-06, "MEAN_MOTION_DDOT": 0}, "tle": {"line1": "1 34389U 93036QE  25352.83287942  .00000832  00000+0  26275-3 0  9995", "line2": "2 34389  74.0181 238.5159 0029175 349.4297  82.7201 14.41547107881006"}}, "geometry": {"type": "Point", "coordinates": [70.38254071922435, -37.196038698996034]}}, {"type": "Feature", "properties": {"norad_id": 34396, "name": "COSMOS 2251 DEB", "group": "cosmos-2251-debris", "lat": -10.124229679612068, "lon": -65.67196397865634, "alt_km": 647.5166041927769, "timestamp": "2025-12-19T04:59:48.700996+00:00", "meta": {"OBJECT_NAME": "COSMOS 2251 DEB", "OBJECT_ID": "1993-036QM", "EPOCH": "2025-12-18T19:03:21.663072", "MEAN_MOTION": 14.74574094, "ECCENTRICITY": 0.00052584, "INCLINATION": 74.0289, "RA_OF_ASC_NODE": 112.2056, "ARG_OF_PERICENTER": 151.4488, "MEAN_ANOMALY": 1.0635, "EPHEMERIS_TYPE": 0, "CLASSIFICATION_TYPE": "U", "NORAD_CAT_ID": 34396, "ELEMENT_SET_NO": 999, "REV_AT_EPOCH": 88435, "BSTAR": 0.001542552, "MEAN_MOTION_DOT": 0.00010261, "MEAN_MOTION_DDOT": 0}, "tle": {"line1": "1 34396U 93036QM  25352.79400073  .00010261  00000+0  15426-2 0  9992", "line2": "2 34396  74.0289 112.2056 0005258 151.4488   1.0635 14.74574094884353"}}, "geometry": {"type": "Point", "coordinates": [-65.67196397865634, -10.124229679612068]}}]}